[{"OBJECT_NAME":"STARLINK-3281","OBJECT_ID":"2021-125AD","EPOCH":"2026-03-09T17:34:19.588224","MEAN_MOTION":15.08833879,"ECCENTRICITY":0.00011903,"INCLINATION":53.2162,"RA_OF_ASC_NODE":248.9316,"ARG_OF_PERICENTER":99.5588,"MEAN_ANOMALY":260.5539,"EPHEMERIS_TYPE":0,"CLASSIFICATION_TYPE":"U","NORAD_CAT_ID":50183,"ELEMENT_SET_NO":999,"REV_AT_EPOCH":23665,"BSTAR":3.99e-8,"MEAN_MOTION_DOT":-2.87e-6,"MEAN_MOTION_DDOT":0},{"OBJECT_NAME":"LEMUR-2-NEUROSPICY","OBJECT_ID":"2025-061E","EPOCH":"2026-03-09T21:29:47.005152","MEAN_MOTION":15.13370729,"ECCENTRICITY":0.00155025,"INCLINATION":97.5545,"RA_OF_ASC_NODE":45.3302,"ARG_OF_PERICENTER":239.5457,"MEAN_ANOMALY":120.4243,"EPHEMERIS_TYPE":0,"CLASSIFICATION_TYPE":"U","NORAD_CAT_ID":63355,"ELEMENT_SET_NO":999,"REV_AT_EPOCH":5259,"BSTAR":0.00032487858,"MEAN_MOTION_DOT":5.745e-5,"MEAN_MOTION_DDOT":0}]
